[
    {
        "Altitude(m)": 558749.6219613487,
        "Argument of Periapsis(deg)": 0.019868973332140504,
        "Eccentricity": 0.0,
        "Inclination(deg)": 53.0,
        "Latitude(deg)": 48.12825664911033,
        "Longitude(deg)": -75.65130635667693,
        "Mean Anomaly(deg)": -291.5433213972673,
        "RAAN(deg)": 329.97043010558406,
        "Satellite Name": "Starlink Shell 1 1454",
        "Satellite Number": 1454,
        "Semi-Major Axis(m)": 6931778.249405717,
        "Time(s)": 570
    },
    {
        "Altitude(m)": 558811.8858055042,
        "Argument of Periapsis(deg)": 0.02021755181165174,
        "Eccentricity": 0.0,
        "Inclination(deg)": 53.0,
        "Latitude(deg)": 48.400094195047366,
        "Longitude(deg)": -74.84603056267673,
        "Mean Anomaly(deg)": -290.9164901937105,
        "RAAN(deg)": 329.96991133550654,
        "Satellite Name": "Starlink Shell 1 1454",
        "Satellite Number": 1454,
        "Semi-Major Axis(m)": 6931778.249405717,
        "Time(s)": 580
    },
    {
        "Altitude(m)": 558872.7391209756,
        "Argument of Periapsis(deg)": 0.020566130291162974,
        "Eccentricity": 0.0,
        "Inclination(deg)": 53.0,
        "Latitude(deg)": 48.66562651253175,
        "Longitude(deg)": -74.03179911189707,
        "Mean Anomaly(deg)": -290.28965899015384,
        "RAAN(deg)": 329.96939256542913,
        "Satellite Name": "Starlink Shell 1 1454",
        "Satellite Number": 1454,
        "Semi-Major Axis(m)": 6931778.249405717,
        "Time(s)": 590
    },
    {
        "Altitude(m)": 558932.1446565066,
        "Argument of Periapsis(deg)": 0.020914708770674213,
        "Eccentricity": 0.0,
        "Inclination(deg)": 53.0,
        "Latitude(deg)": 48.924728977312874,
        "Longitude(deg)": -73.20864936672308,
        "Mean Anomaly(deg)": -289.6628277865971,
        "RAAN(deg)": 329.9688737953516,
        "Satellite Name": "Starlink Shell 1 1454",
        "Satellite Number": 1454,
        "Semi-Major Axis(m)": 6931778.249405717,
        "Time(s)": 600
    },
    {
        "Altitude(m)": 558990.0660973353,
        "Argument of Periapsis(deg)": 0.021263287250185448,
        "Eccentricity": 0.0,
        "Inclination(deg)": 53.0,
        "Latitude(deg)": 49.1772768998626,
        "Longitude(deg)": -72.37663141231367,
        "Mean Anomaly(deg)": -289.0359965830404,
        "RAAN(deg)": 329.9683550252741,
        "Satellite Name": "Starlink Shell 1 1454",
        "Satellite Number": 1454,
        "Semi-Major Axis(m)": 6931778.249405717,
        "Time(s)": 610
    },
    {
        "Altitude(m)": 559046.468083153,
        "Argument of Periapsis(deg)": 0.021611865729696686,
        "Eccentricity": 0.0,
        "Inclination(deg)": 53.0,
        "Latitude(deg)": 49.42314572024231,
        "Longitude(deg)": -71.53580806884963,
        "Mean Anomaly(deg)": -288.4091653794837,
        "RAAN(deg)": 329.9678362551967,
        "Satellite Name": "Starlink Shell 1 1454",
        "Satellite Number": 1454,
        "Semi-Major Axis(m)": 6931778.249405717,
        "Time(s)": 620
    },
    {
        "Altitude(m)": 559101.3162254923,
        "Argument of Periapsis(deg)": 0.02196044420920792,
        "Eccentricity": 0.0,
        "Inclination(deg)": 53.0,
        "Latitude(deg)": 49.6622112139919,
        "Longitude(deg)": -70.68625656383078,
        "Mean Anomaly(deg)": -287.78233417592696,
        "RAAN(deg)": 329.9673174851192,
        "Satellite Name": "Starlink Shell 1 1454",
        "Satellite Number": 1454,
        "Semi-Major Axis(m)": 6931778.249405717,
        "Time(s)": 630
    },
    {
        "Altitude(m)": 559154.5771246644,
        "Argument of Periapsis(deg)": 0.02230902268871916,
        "Eccentricity": 0.0,
        "Inclination(deg)": 53.0,
        "Latitude(deg)": 49.89434970879058,
        "Longitude(deg)": -69.8280676572894,
        "Mean Anomaly(deg)": -287.1555029723702,
        "RAAN(deg)": 329.9667987150417,
        "Satellite Name": "Starlink Shell 1 1454",
        "Satellite Number": 1454,
        "Semi-Major Axis(m)": 6931778.249405717,
        "Time(s)": 640
    },
    {
        "Altitude(m)": 559206.2183862015,
        "Argument of Periapsis(deg)": 0.022657601168230398,
        "Eccentricity": 0.0,
        "Inclination(deg)": 53.0,
        "Latitude(deg)": 50.119438311532846,
        "Longitude(deg)": -68.96134725792163,
        "Mean Anomaly(deg)": -286.5286717688135,
        "RAAN(deg)": 329.9662799449643,
        "Satellite Name": "Starlink Shell 1 1454",
        "Satellite Number": 1454,
        "Semi-Major Axis(m)": 6931778.249405717,
        "Time(s)": 650
    },
    {
        "Altitude(m)": 559256.2086367694,
        "Argument of Periapsis(deg)": 0.023006179647741636,
        "Eccentricity": 0.0,
        "Inclination(deg)": 53.0,
        "Latitude(deg)": 50.337355145364796,
        "Longitude(deg)": -68.08621632265375,
        "Mean Anomaly(deg)": -285.9018405652568,
        "RAAN(deg)": 329.9657611748868,
        "Satellite Name": "Starlink Shell 1 1454",
        "Satellite Number": 1454,
        "Semi-Major Axis(m)": 6931778.249405717,
        "Time(s)": 660
    },
    {
        "Altitude(m)": 559304.5175395852,
        "Argument of Periapsis(deg)": 0.023354758127252868,
        "Eccentricity": 0.0,
        "Inclination(deg)": 53.0,
        "Latitude(deg)": 50.54797959610879,
        "Longitude(deg)": -67.20281071544373,
        "Mean Anomaly(deg)": -285.27500936170014,
        "RAAN(deg)": 329.9652424048093,
        "Satellite Name": "Starlink Shell 1 1454",
        "Satellite Number": 1454,
        "Semi-Major Axis(m)": 6931778.249405717,
        "Time(s)": 670
    },
    {
        "Altitude(m)": 559351.1158093038,
        "Argument of Periapsis(deg)": 0.023703336606764106,
        "Eccentricity": 0.0,
        "Inclination(deg)": 53.0,
        "Latitude(deg)": 50.75119256739197,
        "Longitude(deg)": -66.3112825329609,
        "Mean Anomaly(deg)": -284.64817815814337,
        "RAAN(deg)": 329.96472363473185,
        "Satellite Name": "Starlink Shell 1 1454",
        "Satellite Number": 1454,
        "Semi-Major Axis(m)": 6931778.249405717,
        "Time(s)": 680
    },
    {
        "Altitude(m)": 559395.9752264053,
        "Argument of Periapsis(deg)": 0.024051915086275345,
        "Eccentricity": 0.0,
        "Inclination(deg)": 53.0,
        "Latitude(deg)": 50.94687674367781,
        "Longitude(deg)": -65.41179986617601,
        "Mean Anomaly(deg)": -284.02134695458665,
        "RAAN(deg)": 329.96420486465433,
        "Satellite Name": "Starlink Shell 1 1454",
        "Satellite Number": 1454,
        "Semi-Major Axis(m)": 6931778.249405717,
        "Time(s)": 690
    },
    {
        "Altitude(m)": 559439.0686510069,
        "Argument of Periapsis(deg)": 0.024400493565786583,
        "Eccentricity": 0.0,
        "Inclination(deg)": 53.0,
        "Latitude(deg)": 51.13491686027803,
        "Longitude(deg)": -64.50454650557337,
        "Mean Anomaly(deg)": -283.39451575103,
        "RAAN(deg)": 329.9636860945769,
        "Satellite Name": "Starlink Shell 1 1454",
        "Satellite Number": 1454,
        "Semi-Major Axis(m)": 6931778.249405717,
        "Time(s)": 700
    },
    {
        "Altitude(m)": 559480.3700361749,
        "Argument of Periapsis(deg)": 0.024749072045297815,
        "Eccentricity": 0.0,
        "Inclination(deg)": 53.0,
        "Latitude(deg)": 51.315199979302044,
        "Longitude(deg)": -63.58972309783531,
        "Mean Anomaly(deg)": -282.7676845474732,
        "RAAN(deg)": 329.96316732449947,
        "Satellite Name": "Starlink Shell 1 1454",
        "Satellite Number": 1454,
        "Semi-Major Axis(m)": 6931778.249405717,
        "Time(s)": 710
    },
    {
        "Altitude(m)": 559519.8544406765,
        "Argument of Periapsis(deg)": 0.025097650524809053,
        "Eccentricity": 0.0,
        "Inclination(deg)": 53.0,
        "Latitude(deg)": 51.4876157703875,
        "Longitude(deg)": -62.66754672344415,
        "Mean Anomaly(deg)": -282.14085334391655,
        "RAAN(deg)": 329.96264855442195,
        "Satellite Name": "Starlink Shell 1 1454",
        "Satellite Number": 1454,
        "Semi-Major Axis(m)": 6931778.249405717,
        "Time(s)": 720
    },
    {
        "Altitude(m)": 559557.4980411974,
        "Argument of Periapsis(deg)": 0.02544622900432029,
        "Eccentricity": 0.0,
        "Inclination(deg)": 53.0,
        "Latitude(deg)": 51.65205679493676,
        "Longitude(deg)": -61.73825040355795,
        "Mean Anomaly(deg)": -281.5140221403598,
        "RAAN(deg)": 329.9621297843444,
        "Satellite Name": "Starlink Shell 1 1454",
        "Satellite Number": 1454,
        "Semi-Major Axis(m)": 6931778.249405717,
        "Time(s)": 730
    },
    {
        "Altitude(m)": 559593.2781439774,
        "Argument of Periapsis(deg)": 0.02579480748383153,
        "Eccentricity": 0.0,
        "Inclination(deg)": 53.0,
        "Latitude(deg)": 51.808418792475955,
        "Longitude(deg)": -60.8020840448819,
        "Mean Anomaly(deg)": -280.88719093680305,
        "RAAN(deg)": 329.961611014267,
        "Satellite Name": "Starlink Shell 1 1454",
        "Satellite Number": 1454,
        "Semi-Major Axis(m)": 6931778.249405717,
        "Time(s)": 740
    },
    {
        "Altitude(m)": 559627.1731959211,
        "Argument of Periapsis(deg)": 0.026143385963342765,
        "Eccentricity": 0.0,
        "Inclination(deg)": 53.0,
        "Latitude(deg)": 51.9566009676545,
        "Longitude(deg)": -59.85931379310617,
        "Mean Anomaly(deg)": -280.2603597332464,
        "RAAN(deg)": 329.96109224418956,
        "Satellite Name": "Starlink Shell 1 1454",
        "Satellite Number": 1454,
        "Semi-Major Axis(m)": 6931778.249405717,
        "Time(s)": 750
    }
]